NORAD_CAT_ID,OBJECT_NAME,OBJECT_TYPE,EPOCH,MEAN_MOTION,ECCENTRICITY,INCLINATION,RA_OF_ASC_NODE,ARG_OF_PERICENTER,MEAN_ANOMALY,BSTAR,MEAN_MOTION_DOT,MEAN_MOTION_DDOT,TLE_LINE0,TLE_LINE1,TLE_LINE2,SEMIMAJOR_AXIS,PERIOD,APOGEE,PERIGEE,DECAYED
50829.0,STARLINK-3294,PAYLOAD,2023-09-09 10:34:43,15.08839775,0.0001436,53.2161,304.3691,85.3563,274.7594,0.00011903,1.607e-05,0.0,0 STARLINK-3294,1 50829U 22001AC  23252.44077885  .00001607  00000-0  11903-3 0  9997,2 50829  53.2161 304.3691 0001436  85.3563 274.7594 15.08839775 92680,6917.881,95.438,540.739,538.753,0.0
50829.0,STARLINK-3294,PAYLOAD,2023-09-09 15:20:52,15.08845038,0.0001482,53.2171,303.4759,96.3942,263.7219,0.00014964,2.095e-05,0.0,0 STARLINK-3294,1 50829U 22001AC  23252.63949486  .00002095  00000-0  14964-3 0  9995,2 50829  53.2171 303.4759 0001482  96.3942 263.7219 15.08845038 93985,6917.865,95.437,540.755,538.705,0.0
50829.0,STARLINK-3294,PAYLOAD,2023-09-10 02:28:35,15.08835012,0.0001398,53.2169,301.3931,91.7472,268.368,7.0161e-05,8.29e-06,0.0,0 STARLINK-3294,1 50829U 22001AC  23253.10318477  .00000829  00000-0  70161-4 0  9993,2 50829  53.2169 301.3931 0001398  91.7472 268.3680 15.08835012 94057,6917.896,95.438,540.728,538.794,0.0
50829.0,STARLINK-3294,PAYLOAD,2023-09-10 08:50:06,15.08843895,0.0001344,53.2154,300.2045,95.5827,264.5318,5.211e-05,5.42e-06,0.0,0 STARLINK-3294,1 50829U 22001AC  23253.36813629  .00000542  00000-0  52110-4 0  9996,2 50829  53.2154 300.2045 0001344  95.5827 264.5318 15.08843895 94090,6917.868,95.437,540.663,538.804,0.0
50829.0,STARLINK-3294,PAYLOAD,2023-09-11 02:19:21,15.08837049,0.0001381,53.2157,296.9347,84.8713,275.2437,-1.5085e-05,-5.28e-06,0.0,0 STARLINK-3294,1 50829U 22001AC  23254.09678092 -.00000528  00000-0 -15085-4 0  9996,2 50829  53.2157 296.9347 0001381  84.8713 275.2437 15.08837049 94203,6917.889,95.438,540.71,538.799,0.0
50829.0,STARLINK-3294,PAYLOAD,2023-09-11 08:40:54,15.0883498,0.0001485,53.2155,295.7453,85.9745,274.1417,-1.4604e-05,-5.2e-06,0.0,0 STARLINK-3294,1 50829U 22001AC  23254.36174418 -.00000520  00000-0 -14604-4 0  9997,2 50829  53.2155 295.7453 0001485  85.9745 274.1417 15.08834980 92977,6917.896,95.438,540.788,538.733,0.0
50829.0,STARLINK-3294,PAYLOAD,2023-09-12 10:07:04,15.08848763,0.0001509,53.2154,290.9881,83.7236,276.3928,0.0002041,2.963e-05,0.0,0 STARLINK-3294,1 50829U 22001AC  23255.42157906  .00002963  00000-0  20410-3 0  9990,2 50829  53.2154 290.9881 0001509  83.7236 276.3928 15.08848763 94401,6917.854,95.437,540.763,538.675,0.0
50829.0,STARLINK-3294,PAYLOAD,2023-09-13 08:22:28,15.08848193,0.0001494,53.2139,286.8235,82.8732,277.243,0.00026312,3.903e-05,0.0,0 STARLINK-3294,1 50829U 22001AC  23256.34893913  .00003903  00000-0  26312-3 0  9999,2 50829  53.2139 286.8235 0001494  82.8732 277.2430 15.08848193 94545,6917.855,95.437,540.754,538.687,0.0
50829.0,STARLINK-3294,PAYLOAD,2023-09-13 11:33:14,15.08853384,0.0001519,53.2143,286.228,82.809,277.3075,0.00032295,4.857e-05,0.0,0 STARLINK-3294,1 50829U 22001AC  23256.48141644  .00004857  00000-0  32295-3 0  9997,2 50829  53.2143 286.2280 0001519  82.8090 277.3075 15.08853384 93294,6917.839,95.437,540.755,538.654,0.0
50829.0,STARLINK-3294,PAYLOAD,2023-09-13 19:30:10,15.08833288,0.0002017,53.2142,284.7417,78.9738,281.1481,-6.2336e-05,-1.28e-05,0.0,0 STARLINK-3294,1 50829U 22001AC  23256.81262624 -.00001280  00000-0 -62336-4 0  9995,2 50829  53.2142 284.7417 0002017  78.9738 281.1481 15.08833288 93348,6917.901,95.438,541.161,538.371,0.0
50829.0,STARLINK-3294,PAYLOAD,2023-09-14 01:51:43,15.08831397,0.0001984,53.2143,283.5524,79.1401,280.9814,-0.00010184,-1.908e-05,0.0,0 STARLINK-3294,1 50829U 22001AC  23257.07758800 -.00001908  00000-0 -10184-3 0  9990,2 50829  53.2143 283.5524 0001984  79.1401 280.9814 15.08831397 94658,6917.907,95.438,541.144,538.399,0.0
50829.0,STARLINK-3294,PAYLOAD,2023-09-14 08:13:16,15.08826853,0.0001674,53.2152,282.3626,78.2189,281.899,-0.00015894,-2.816e-05,0.0,0 STARLINK-3294,1 50829U 22001AC  23257.34255337 -.00002816  00000-0 -15894-3 0  9999,2 50829  53.2152 282.3626 0001674  78.2189 281.8990 15.08826853 93427,6917.921,95.438,540.944,538.628,0.0
50829.0,STARLINK-3294,PAYLOAD,2023-09-14 19:20:58,15.08829519,0.0001628,53.2162,280.2791,86.8745,273.2433,-3.2937e-05,-8.12e-06,0.0,0 STARLINK-3294,1 50829U 22001AC  23257.80623495 -.00000812  00000-0 -32937-4 0  9996,2 50829  53.2162 280.2791 0001628  86.8745 273.2433 15.08829519 93496,6917.912,95.438,540.904,538.651,0.0
50829.0,STARLINK-3294,PAYLOAD,2023-09-15 08:04:03,15.08839657,0.0001569,53.2158,277.9006,80.0364,280.0805,0.00010774,1.427e-05,0.0,0 STARLINK-3294,1 50829U 22001AC  23258.33615275  .00001427  00000-0  10774-3 0  9997,2 50829  53.2158 277.9006 0001569  80.0364 280.0805 15.08839657 94843,6917.881,95.438,540.832,538.661,0.0
50829.0,STARLINK-3294,PAYLOAD,2023-09-16 11:05:36,15.08847699,0.0001606,53.2153,272.8454,88.5066,271.611,0.00031343,4.705e-05,0.0,0 STARLINK-3294,1 50829U 22001AC  23259.46222948  .00004705  00000-0  31343-3 0  9990,2 50829  53.2153 272.8454 0001606  88.5066 271.6110 15.08847699 93741,6917.857,95.437,540.833,538.611,0.0
50829.0,STARLINK-3294,PAYLOAD,2023-09-16 17:27:09,15.08844126,0.0001651,53.2158,271.6543,86.3625,273.7556,0.0002169,3.166e-05,0.0,0 STARLINK-3294,1 50829U 22001AC  23259.72719120  .00003166  00000-0  21690-3 0  9996,2 50829  53.2158 271.6543 0001651  86.3625 273.7556 15.08844126 95054,6917.868,95.437,540.875,538.591,0.0
50829.0,STARLINK-3294,PAYLOAD,2023-09-17 07:45:37,15.08848163,0.0002483,53.2156,268.9801,105.3422,254.7845,0.00010652,1.408e-05,0.0,0 STARLINK-3294,1 50829U 22001AC  23260.32334882  .00001408  00000-0  10652-3 0  9995,2 50829  53.2156 268.9801 0002483 105.3422 254.7845 15.08848163 93872,6917.855,95.437,541.438,538.003,0.0
50829.0,STARLINK-3294,PAYLOAD,2023-09-18 01:14:52,15.08841508,0.0001705,53.2163,265.7085,94.2472,265.8715,1.1007e-06,-2.71e-06,0.0,0 STARLINK-3294,1 50829U 22001AC  23261.05199312 -.00000271  00000-0  11007-5 0  9998,2 50829  53.2163 265.7085 0001705  94.2472 265.8715 15.08841508 95255,6917.876,95.437,540.92,538.561,0.0
50829.0,STARLINK-3294,PAYLOAD,2023-09-18 06:01:01,15.08839829,0.0001673,53.2165,264.8164,95.6272,264.4911,-2.681e-05,-7.15e-06,0.0,0 STARLINK-3294,1 50829U 22001AC  23261.25071386 -.00000715  00000-0 -26810-4 0  9991,2 50829  53.2165 264.8164 0001673  95.6272 264.4911 15.08839829 94011,6917.881,95.438,540.903,538.589,0.0
50829.0,STARLINK-3294,PAYLOAD,2023-09-18 17:08:42,15.08847714,0.0001659,53.2167,262.7357,100.1125,260.0054,3.6871e-05,2.99e-06,0.0,0 STARLINK-3294,1 50829U 22001AC  23261.71438587  .00000299  00000-0  36871-4 0  9995,2 50829  53.2167 262.7357 0001659 100.1125 260.0054 15.08847714 95357,6917.857,95.437,540.869,538.574,0.0
50829.0,STARLINK-3294,PAYLOAD,2023-09-19 07:27:09,15.08865187,0.0001628,53.2155,260.0588,90.4482,269.6696,0.00035989,5.448e-05,0.0,0 STARLINK-3294,1 50829U 22001AC  23262.31053217  .00005448  00000-0  35989-3 0  9994,2 50829  53.2155 260.0588 0001628  90.4482 269.6696 15.08865187 95445,6917.803,95.436,540.795,538.542,0.0
50829.0,STARLINK-3294,PAYLOAD,2023-09-19 16:59:29,15.08846885,0.0001645,53.2156,258.2758,94.4657,265.6523,0.0001112,1.482e-05,0.0,0 STARLINK-3294,1 50829U 22001AC  23262.70797976  .00001482  00000-0  11120-3 0  9999,2 50829  53.2156 258.2758 0001645  94.4657 265.6523 15.08846885 95507,6917.859,95.437,540.862,538.586,0.0
50829.0,STARLINK-3294,PAYLOAD,2023-09-20 04:07:11,15.08832204,0.0001677,53.2145,256.1926,99.4139,260.7043,-0.00027714,-4.695e-05,0.0,0 STARLINK-3294,1 50829U 22001AC  23263.17166378 -.00004695  00000-0 -27714-3 0  9994,2 50829  53.2145 256.1926 0001677  99.4139 260.7043 15.08832204 95574,6917.904,95.438,540.929,538.609,0.0
50829.0,STARLINK-3294,PAYLOAD,2023-09-20 08:53:21,15.0883155,0.0001598,53.2145,255.3008,103.548,256.569,0.00027178,4.039e-05,0.0,0 STARLINK-3294,1 50829U 22001AC  23263.37038517  .00004039  00000-0  27178-3 0  9993,2 50829  53.2145 255.3008 0001598 103.5480 256.5690 15.08831550 94331,6917.906,95.438,540.877,538.666,0.0
50829.0,STARLINK-3294,PAYLOAD,2023-09-20 16:50:17,15.08821457,0.0001703,53.2145,253.8135,103.4656,256.6526,0.00085213,0.00013293,0.0,0 STARLINK-3294,1 50829U 22001AC  23263.70159384  .00013293  00000-0  85213-3 0  9992,2 50829  53.2145 253.8135 0001703 103.4656 256.6526 15.08821457 94386,6917.937,95.439,540.98,538.624,0.0
50829.0,STARLINK-3294,PAYLOAD,2023-09-21 08:44:09,15.08837697,0.0001633,53.2144,250.8398,105.3873,254.73,0.00085445,0.00013336,0.0,0 STARLINK-3294,1 50829U 22001AC  23264.36399806  .00013336  00000-0  85445-3 0  9995,2 50829  53.2144 250.8398 0001633 105.3873 254.7300 15.08837697 95751,6917.887,95.438,540.882,538.623,0.0
50829.0,STARLINK-3294,PAYLOAD,2023-09-21 16:41:05,15.08837061,0.0001618,53.2141,249.3525,105.6215,254.4956,0.00059594,9.208e-05,0.0,0 STARLINK-3294,1 50829U 22001AC  23264.69519992  .00009208  00000-0  59594-3 0  9990,2 50829  53.2141 249.3525 0001618 105.6215 254.4956 15.08837061 94533,6917.889,95.438,540.874,538.635,0.0
50829.0,STARLINK-3294,PAYLOAD,2023-09-22 05:24:10,15.08847988,0.0001579,53.2154,246.9746,103.3541,256.7627,0.00067883,0.00010534,0.0,0 STARLINK-3294,1 50829U 22001AC  23265.22511878  .00010534  00000-0  67883-3 0  9999,2 50829  53.2154 246.9746 0001579 103.3541 256.7627 15.08847988 95886,6917.856,95.437,540.813,538.629,0.0
50829.0,STARLINK-3294,PAYLOAD,2023-09-23 02:04:10,15.08847231,0.0001743,53.2159,243.109,103.7028,256.4158,0.00029374,4.391e-05,0.0,0 STARLINK-3294,1 50829U 22001AC  23266.08623698  .00004391  00000-0  29374-3 0  9995,2 50829  53.2159 243.1090 0001743 103.7028 256.4158 15.08847231 96012,6917.858,95.437,540.929,538.518,0.0
50829.0,STARLINK-3294,PAYLOAD,2023-09-23 05:14:57,15.08853595,0.0001527,53.2143,242.5133,98.2346,261.8819,0.00044075,6.736e-05,0.0,0 STARLINK-3294,1 50829U 22001AC  23266.21871570  .00006736  00000-0  44075-3 0  9994,2 50829  53.2143 242.5133 0001527  98.2346 261.8819 15.08853595 94761,6917.839,95.437,540.76,538.647,0.0
